FENGYUN 4C              
1 67246U 25312A   25360.90857406  .00039214  41525-6  21251-2 0  9998
2 67246  28.4641 334.3215 7309751 179.7824 181.1675  2.27841578    17
CZ-3B R/B               
1 67247U 25312B   26002.15664140  .00100128 -10343-6  38758-3 0  9990
2 67247  28.4383 331.8290 7236595 183.0197 167.3066  2.39802442   157
TIANHUI 7               
1 67300U 25314A   25365.92372150  .00003476  00000+0  14121-3 0  9992
2 67300  97.4225  78.1262 0001255 100.3877 259.7502 15.25236623   287
CZ-4B R/B               
1 67301U 25314B   25365.75235903  .00099613  48706-5  52684-3 0  9993
2 67301  97.3775  78.0261 0149992  13.3608 347.1555 15.66057522   218
2025-315A               
1 67302U 25315A   25365.60681806  .00007587  00000+0  11168-2 0  9995
2 67302  19.4941 100.4624 7295759 180.0324 168.0161  2.27863390    22
CZ-7A R/B               
1 67303U 25315B   25365.17922199  .00041123  76302-6  12201-2 0  9999
2 67303  19.7725 100.7388 7234083 178.7114 185.5568  2.38363488    20
